NORAD_CAT_ID,OBJECT_NAME,OBJECT_TYPE,EPOCH,MEAN_MOTION,ECCENTRICITY,INCLINATION,RA_OF_ASC_NODE,ARG_OF_PERICENTER,MEAN_ANOMALY,BSTAR,MEAN_MOTION_DOT,MEAN_MOTION_DDOT,TLE_LINE0,TLE_LINE1,TLE_LINE2,SEMIMAJOR_AXIS,PERIOD,APOGEE,PERIGEE,DECAYED
52290.0,STARLINK-3772,PAYLOAD,2023-03-25 18:46:54,15.08821622,0.0001015,53.2154,267.0787,91.8441,268.2667,-0.00027123,-4.6e-05,0.0,0 STARLINK-3772,1 52290U 22041AF  23084.78257442 -.00004600  00000-0 -27123-3 0  9993,2 52290  53.2154 267.0787 0001015  91.8441 268.2667 15.08821622 52684,6917.937,95.439,540.504,539.099,0.0
52290.0,STARLINK-3772,PAYLOAD,2023-03-26 12:16:09,15.08834771,0.0001067,53.2161,263.8078,92.0516,268.0598,0.000282,4.202e-05,0.0,0 STARLINK-3772,1 52290U 22041AF  23085.51121877  .00004202  00000-0  28200-3 0  9990,2 52290  53.2161 263.8078 0001067  92.0516 268.0598 15.08834771 52794,6917.896,95.438,540.5,539.023,0.0
52290.0,STARLINK-3772,PAYLOAD,2023-03-26 18:37:42,15.08850073,9.32e-05,53.2161,262.6184,93.147,266.9629,0.0013621,0.00021462,0.0,0 STARLINK-3772,1 52290U 22041AF  23085.77618131  .00021462  00000-0  13621-2 0  9999,2 52290  53.2161 262.6184 0000932  93.1470 266.9629 15.08850073 51626,6917.85,95.437,540.359,539.07,0.0
52290.0,STARLINK-3772,PAYLOAD,2023-03-27 12:06:56,15.08857468,0.0001021,53.2167,259.3487,94.618,265.4928,0.0006213,9.619e-05,0.0,0 STARLINK-3772,1 52290U 22041AF  23086.50481559  .00009619  00000-0  62130-3 0  9993,2 52290  53.2167 259.3487 0001021  94.6180 265.4928 15.08857468 51738,6917.827,95.436,540.398,538.986,0.0
52290.0,STARLINK-3772,PAYLOAD,2023-03-27 18:28:28,15.08862176,0.0001074,53.2163,258.1589,97.5345,262.5769,0.00059068,9.131e-05,0.0,0 STARLINK-3772,1 52290U 22041AF  23086.76977175  .00009131  00000-0  59068-3 0  9990,2 52290  53.2163 258.1589 0001074  97.5345 262.5769 15.08862176 52988,6917.813,95.436,540.421,538.935,0.0
52290.0,STARLINK-3772,PAYLOAD,2023-03-28 11:57:42,15.08848097,0.000107,53.2165,254.888,91.2867,268.8248,0.00014002,1.942e-05,0.0,0 STARLINK-3772,1 52290U 22041AF  23087.49841110  .00001942  00000-0  14002-3 0  9991,2 52290  53.2165 254.8880 0001070  91.2867 268.8248 15.08848097 53093,6917.856,95.437,540.461,538.98,0.0
52290.0,STARLINK-3772,PAYLOAD,2023-03-28 18:19:15,15.08852129,0.0001061,53.216,253.6993,103.3184,256.7927,0.00016267,2.303e-05,0.0,0 STARLINK-3772,1 52290U 22041AF  23087.76336848  .00002303  00000-0  16267-3 0  9995,2 52290  53.2160 253.6993 0001061 103.3184 256.7927 15.08852129 51928,6917.843,95.437,540.442,538.974,0.0
52290.0,STARLINK-3772,PAYLOAD,2023-03-29 03:51:34,15.08845007,0.0001352,53.2163,251.914,93.8247,266.29,3.4872e-05,2.67e-06,0.0,0 STARLINK-3772,1 52290U 22041AF  23088.16081074  .00000267  00000-0  34872-4 0  9998,2 52290  53.2163 251.9140 0001352  93.8247 266.2900 15.08845007 51982,6917.865,95.437,540.665,538.795,0.0
52290.0,STARLINK-3772,PAYLOAD,2023-03-29 18:10:02,15.08840206,0.0001287,53.2169,249.2372,88.6194,271.4945,-9.1063e-06,-4.33e-06,0.0,0 STARLINK-3772,1 52290U 22041AF  23088.75697250 -.00000433  00000-0 -91063-5 0  9995,2 52290  53.2169 249.2372 0001287  88.6194 271.4945 15.08840206 53283,6917.88,95.438,540.635,538.854,0.0
52290.0,STARLINK-3772,PAYLOAD,2023-03-29 22:56:11,15.0885165,8.22e-05,53.2146,248.3438,94.9301,265.1785,0.0002171,3.17e-05,0.0,0 STARLINK-3772,1 52290U 22041AF  23088.95568549  .00003170  00000-0  21710-3 0  9994,2 52290  53.2146 248.3438 0000822  94.9301 265.1785 15.08851650 53316,6917.845,95.437,540.278,539.141,0.0
52290.0,STARLINK-3772,PAYLOAD,2023-03-30 10:03:53,15.08834556,6.75e-05,53.2161,246.2629,52.0367,308.0686,-5.2114e-05,-1.117e-05,0.0,0 STARLINK-3772,1 52290U 22041AF  23089.41937399 -.00001117  00000-0 -52114-4 0  9993,2 52290  53.2161 246.2629 0000675  52.0367 308.0686 15.08834556 53385,6917.897,95.438,540.229,539.295,0.0
52290.0,STARLINK-3772,PAYLOAD,2023-03-30 18:00:48,15.08860801,0.0001114,53.2162,244.7761,72.1382,287.9732,0.00048148,7.387e-05,0.0,0 STARLINK-3772,1 52290U 22041AF  23089.75056515  .00007387  00000-0  48148-3 0  9996,2 52290  53.2162 244.7761 0001114  72.1382 287.9732 15.08860801 53430,6917.817,95.436,540.452,538.911,0.0
52290.0,STARLINK-3772,PAYLOAD,2023-03-31 03:33:07,15.08830363,2.26e-05,53.2158,242.9925,250.4431,109.6537,-0.00023828,-4.076e-05,0.0,0 STARLINK-3772,1 52290U 22041AF  23090.14800734 -.00004076  00000-0 -23828-3 0  9993,2 52290  53.2158 242.9925 0000226 250.4431 109.6537 15.08830363 53495,6917.91,95.438,539.931,539.619,0.0
52290.0,STARLINK-3772,PAYLOAD,2023-03-31 14:40:50,15.08846151,0.0001519,53.2157,240.9118,81.7742,278.3423,0.00022835,3.349e-05,0.0,0 STARLINK-3772,1 52290U 22041AF  23090.61169290  .00003349  00000-0  22835-3 0  9997,2 52290  53.2157 240.9118 0001519  81.7742 278.3423 15.08846151 53560,6917.862,95.437,540.777,538.676,0.0
52290.0,STARLINK-3772,PAYLOAD,2023-04-01 12:56:14,15.08827255,9.9e-05,53.2161,236.7479,93.3312,266.7793,-0.00018447,-3.221e-05,0.0,0 STARLINK-3772,1 52290U 22041AF  23091.53905666 -.00003221  00000-0 -18447-3 0  9999,2 52290  53.2161 236.7479 0000990  93.3312 266.7793 15.08827255 53703,6917.919,95.438,540.469,539.099,0.0
52290.0,STARLINK-3772,PAYLOAD,2023-04-01 16:07:00,15.08829631,0.0001079,53.2167,236.1547,89.0013,271.1103,-2.0978e-05,-6.22e-06,0.0,0 STARLINK-3772,1 52290U 22041AF  23091.67153787 -.00000622  00000-0 -20978-4 0  9998,2 52290  53.2167 236.1547 0001079  89.0013 271.1103 15.08829631 52511,6917.912,95.438,540.524,539.031,0.0
52290.0,STARLINK-3772,PAYLOAD,2023-04-02 12:47:01,15.08853878,0.0001175,53.2162,232.2888,96.9433,263.1692,0.00084861,0.00013249,0.0,0 STARLINK-3772,1 52290U 22041AF  23092.53265678  .00013249  00000-0  84861-3 0  9994,2 52290  53.2162 232.2888 0001175  96.9433 263.1692 15.08853878 53853,6917.838,95.437,540.516,538.89,0.0
52290.0,STARLINK-3772,PAYLOAD,2023-04-02 14:22:24,15.08860913,0.0001253,53.2155,231.9909,95.6743,264.4392,0.0011468,0.00018021,0.0,0 STARLINK-3772,1 52290U 22041AF  23092.59889618  .00018021  00000-0  11468-2 0  9991,2 52290  53.2155 231.9909 0001253  95.6743 264.4392 15.08860913 52658,6917.816,95.436,540.548,538.815,0.0
52290.0,STARLINK-3772,PAYLOAD,2023-04-02 19:08:33,15.08874533,0.000131,53.2156,231.0965,108.5014,251.612,0.0013034,0.00020536,0.0,0 STARLINK-3772,1 52290U 22041AF  23092.79760994  .00020536  00000-0  13034-2 0  9993,2 52290  53.2156 231.0965 0001310 108.5014 251.6120 15.08874533 53898,6917.775,95.435,540.546,538.734,0.0
52290.0,STARLINK-3772,PAYLOAD,2023-04-03 09:27:02,15.08834036,0.0001937,53.2156,228.4192,130.7096,229.4064,0.00097718,0.00015296,0.0,0 STARLINK-3772,1 52290U 22041AF  23093.39377672  .00015296  00000-0  97718-3 0  9996,2 52290  53.2156 228.4192 0001937 130.7096 229.4064 15.08834036 53986,6917.899,95.438,541.104,538.424,0.0
52290.0,STARLINK-3772,PAYLOAD,2023-04-03 18:59:21,15.08841211,0.0001653,53.2164,226.6359,124.3595,235.7553,0.00045594,6.976e-05,0.0,0 STARLINK-3772,1 52290U 22041AF  23093.79121720  .00006976  00000-0  45594-3 0  9991,2 52290  53.2164 226.6359 0001653 124.3595 235.7553 15.08841211 52837,6917.877,95.437,540.885,538.598,0.0
52290.0,STARLINK-3772,PAYLOAD,2023-04-04 01:20:53,15.08843025,0.0001291,53.2174,225.4486,113.1341,246.9787,0.00078922,0.00012296,0.0,0 STARLINK-3772,1 52290U 22041AF  23094.05617941  .00012296  00000-0  78922-3 0  9999,2 52290  53.2174 225.4486 0001291 113.1341 246.9787 15.08843025 54086,6917.871,95.437,540.629,538.843,0.0
52290.0,STARLINK-3772,PAYLOAD,2023-04-04 09:17:49,15.08840405,0.0001209,53.2169,223.961,105.7517,254.3608,0.00087408,0.00013651,0.0,0 STARLINK-3772,1 52290U 22041AF  23094.38738061  .00013651  00000-0  87408-3 0  9997,2 52290  53.2169 223.9610 0001209 105.7517 254.3608 15.08840405 52928,6917.879,95.438,540.581,538.908,0.0
52290.0,STARLINK-3772,PAYLOAD,2023-04-05 13:54:46,15.08841778,0.0001106,53.2159,218.6079,82.2309,277.8808,0.00032543,4.895e-05,0.0,0 STARLINK-3772,1 52290U 22041AF  23095.57970112  .00004895  00000-0  32543-3 0  9994,2 52290  53.2159 218.6079 0001106  82.2309 277.8808 15.08841778 54312,6917.875,95.437,540.505,538.975,0.0
52290.0,STARLINK-3772,PAYLOAD,2023-04-05 15:30:09,15.08843611,8.62e-05,53.2153,218.3104,84.1095,275.9995,0.00027392,4.075e-05,0.0,0 STARLINK-3772,1 52290U 22041AF  23095.64594065  .00004075  00000-0  27392-3 0  9997,2 52290  53.2153 218.3104 0000862  84.1095 275.9995 15.08843611 53114,6917.869,95.437,540.331,539.138,0.0
52290.0,STARLINK-3772,PAYLOAD,2023-04-06 07:24:00,15.08838171,0.0001099,53.2173,215.3385,87.5387,272.5731,8.4729e-05,1.061e-05,0.0,0 STARLINK-3772,1 52290U 22041AF  23096.30834346  .00001061  00000-0  84729-4 0  9990,2 52290  53.2173 215.3385 0001099  87.5387 272.5731 15.08838171 54429,6917.886,95.438,540.511,538.991,0.0
52290.0,STARLINK-3772,PAYLOAD,2023-04-06 12:10:10,15.08840265,0.0001207,53.2185,214.4469,88.3192,271.7938,0.00010391,1.366e-05,0.0,0 STARLINK-3772,1 52290U 22041AF  23096.50706289  .00001366  00000-0  10391-3 0  9997,2 52290  53.2185 214.4469 0001207  88.3192 271.7938 15.08840265 53245,6917.88,95.438,540.58,538.91,0.0
52290.0,STARLINK-3772,PAYLOAD,2023-04-07 12:00:57,15.08846992,0.0001229,53.2185,209.9871,83.6256,276.4876,1.8155e-05,1e-08,0.0,0 STARLINK-3772,1 52290U 22041AF  23097.50066086  .00000001  00000-0  18155-4 0  9994,2 52290  53.2185 209.9871 0001229  83.6256 276.4876 15.08846992 54601,6917.859,95.437,540.574,538.874,0.0
52290.0,STARLINK-3772,PAYLOAD,2023-04-08 11:51:44,15.08841153,0.0001535,53.2145,205.5251,85.2774,274.8393,5.974e-05,6.63e-06,0.0,0 STARLINK-3772,1 52290U 22041AF  23098.49426443  .00000663  00000-0  59740-4 0  9999,2 52290  53.2145 205.5251 0001535  85.2774 274.8393 15.08841153 54750,6917.877,95.437,540.804,538.68,0.0
52290.0,STARLINK-3772,PAYLOAD,2023-04-08 13:27:07,15.08843105,0.0001198,53.2148,205.2276,70.7995,289.3127,6.9845e-05,8.24e-06,0.0,0 STARLINK-3772,1 52290U 22041AF  23098.56050297  .00000824  00000-0  69845-4 0  9993,2 52290  53.2148 205.2276 0001198  70.7995 289.3127 15.08843105 53558,6917.871,95.437,540.565,538.907,0.0
